start=new Date('2022-03-19T00:00:00.000Z').valueOf();
sats=[{"MEAN_MOTION_DOT":"0.00003724","CENTER_NAME":"EARTH","REF_FRAME":"TEME","APOAPSIS":"548.374","TIME_SYSTEM":"UTC","LAUNCH_DATE":"2021-05-04","ECCENTRICITY":"0.00016360","EPOCH":"2022-03-18T06:33:09.041184","EPHEMERIS_TYPE":"0","DECAY_DATE":null,"MEAN_MOTION_DDOT":"0.0000000000000","TLE_LINE1":"1 48377U 21038AA  22077.27302131  .00003724  00000-0  26885-3 0  9998","MEAN_ANOMALY":"306.5406","ARG_OF_PERICENTER":"53.5733","OBJECT_NAME":"STARLINK-2499","CLASSIFICATION_TYPE":"U","RA_OF_ASC_NODE":"31.7795","COUNTRY_CODE":"US","BSTAR":"0.00026885000000","SITE":"AFETR","RCS_SIZE":"LARGE","NORAD_CAT_ID":"48377","ELEMENT_SET_NO":"999","PERIOD":"95.593","MEAN_MOTION":"15.06391117","PERIAPSIS":"546.108","INCLINATION":"53.0573","OBJECT_ID":"2021-038AA","TLE_LINE2":"2 48377  53.0573  31.7795 0001636  53.5733 306.5406 15.06391117 48255","OBJECT_TYPE":"PAYLOAD","GP_ID":"199045254","FILE":"3364342","REV_AT_EPOCH":"4825","MEAN_ELEMENT_THEORY":"SGP4","SEMIMAJOR_AXIS":"6925.376"},{"PERIOD":"95.591","MEAN_MOTION":"15.06416951","TLE_LINE2":"2 48378  53.0550  32.3906 0001690  47.0933 313.0197 15.06416951 48234","INCLINATION":"53.0550","PERIAPSIS":"545.991","OBJECT_ID":"2021-038AB","FILE":"3364342","GP_ID":"199044994","OBJECT_TYPE":"PAYLOAD","MEAN_ELEMENT_THEORY":"SGP4","REV_AT_EPOCH":"4823","SEMIMAJOR_AXIS":"6925.297","CLASSIFICATION_TYPE":"U","OBJECT_NAME":"STARLINK-2526","RA_OF_ASC_NODE":"32.3906","ARG_OF_PERICENTER":"47.0933","COUNTRY_CODE":"US","BSTAR":"0.00089399000000","SITE":"AFETR","RCS_SIZE":"LARGE","ELEMENT_SET_NO":"999","NORAD_CAT_ID":"48378","DECAY_DATE":null,"MEAN_MOTION_DDOT":"0.0000000000000","MEAN_ANOMALY":"313.0197","TLE_LINE1":"1 48378U 21038AB  22077.13663306  .00013065  00000-0  89399-3 0  9996","MEAN_MOTION_DOT":"0.00013065","CENTER_NAME":"EARTH","REF_FRAME":"TEME","APOAPSIS":"548.332","TIME_SYSTEM":"UTC","LAUNCH_DATE":"2021-05-04","EPHEMERIS_TYPE":"0","ECCENTRICITY":"0.00016900","EPOCH":"2022-03-18T03:16:45.096384"},{"MEAN_MOTION_DDOT":"0.0000000000000","TLE_LINE1":"1 48379U 21038AC  22077.26563192 -.00002198  00000-0 -12871-3 0  9991","MEAN_ANOMALY":"292.0432","DECAY_DATE":null,"LAUNCH_DATE":"2021-05-04","EPOCH":"2022-03-18T06:22:30.597888","ECCENTRICITY":"0.00015990","EPHEMERIS_TYPE":"0","REF_FRAME":"TEME","APOAPSIS":"548.336","TIME_SYSTEM":"UTC","CENTER_NAME":"EARTH","MEAN_MOTION_DOT":"-0.00002198","SEMIMAJOR_AXIS":"6925.364","OBJECT_TYPE":"PAYLOAD","GP_ID":"199044254","FILE":"3364342","REV_AT_EPOCH":"4825","MEAN_ELEMENT_THEORY":"SGP4","MEAN_MOTION":"15.06395024","OBJECT_ID":"2021-038AC","PERIAPSIS":"546.121","INCLINATION":"53.0565","TLE_LINE2":"2 48379  53.0565  31.8086 0001599  68.0726 292.0432 15.06395024 48252","PERIOD":"95.592","NORAD_CAT_ID":"48379","ELEMENT_SET_NO":"999","RCS_SIZE":"LARGE","BSTAR":"-0.00012871000000","SITE":"AFETR","ARG_OF_PERICENTER":"68.0726","OBJECT_NAME":"STARLINK-2612","CLASSIFICATION_TYPE":"U","RA_OF_ASC_NODE":"31.8086","COUNTRY_CODE":"US"},{"RCS_SIZE":"LARGE","ELEMENT_SET_NO":"999","NORAD_CAT_ID":"48380","ARG_OF_PERICENTER":"48.6604","OBJECT_NAME":"STARLINK-2614","CLASSIFICATION_TYPE":"U","RA_OF_ASC_NODE":"31.3993","COUNTRY_CODE":"US","BSTAR":"0.00017204000000","SITE":"AFETR","OBJECT_TYPE":"PAYLOAD","FILE":"3364100","GP_ID":"199016428","MEAN_ELEMENT_THEORY":"SGP4","REV_AT_EPOCH":"4885","SEMIMAJOR_AXIS":"6925.317","PERIOD":"95.591","MEAN_MOTION":"15.06410321","PERIAPSIS":"545.757","OBJECT_ID":"2021-038AD","INCLINATION":"53.0567","TLE_LINE2":"2 48380  53.0567  31.3993 0002057  48.6604 311.4562 15.06410321 48851","APOAPSIS":"548.606","REF_FRAME":"TEME","TIME_SYSTEM":"UTC","LAUNCH_DATE":"2021-05-04","EPOCH":"2022-03-18T08:33:51.361344","ECCENTRICITY":"0.00020570","EPHEMERIS_TYPE":"0","MEAN_MOTION_DOT":"0.00002282","CENTER_NAME":"EARTH","MEAN_MOTION_DDOT":"0.0000000000000","MEAN_ANOMALY":"311.4562","TLE_LINE1":"1 48380U 21038AD  22077.35684446  .00002282  00000-0  17204-3 0  9996","DECAY_DATE":null},{"SEMIMAJOR_AXIS":"6925.316","FILE":"3364342","GP_ID":"199044755","OBJECT_TYPE":"PAYLOAD","MEAN_ELEMENT_THEORY":"SGP4","REV_AT_EPOCH":"4824","MEAN_MOTION":"15.06410561","TLE_LINE2":"2 48381  53.0542  32.1204 0001726  45.7208 314.3922 15.06410561 48240","PERIAPSIS":"545.986","INCLINATION":"53.0542","OBJECT_ID":"2021-038AE","PERIOD":"95.591","ELEMENT_SET_NO":"999","NORAD_CAT_ID":"48381","RCS_SIZE":"LARGE","BSTAR":"0.00085755000000","SITE":"AFETR","CLASSIFICATION_TYPE":"U","RA_OF_ASC_NODE":"32.1204","OBJECT_NAME":"STARLINK-2630","ARG_OF_PERICENTER":"45.7208","COUNTRY_CODE":"US","MEAN_MOTION_DDOT":"0.0000000000000","MEAN_ANOMALY":"314.3922","TLE_LINE1":"1 48381U 21038AE  22077.19561258  .00012518  00000-0  85755-3 0  9993","DECAY_DATE":null,"LAUNCH_DATE":"2021-05-04","EPHEMERIS_TYPE":"0","EPOCH":"2022-03-18T04:41:40.926912","ECCENTRICITY":"0.00017260","APOAPSIS":"548.376","REF_FRAME":"TEME","TIME_SYSTEM":"UTC","CENTER_NAME":"EARTH","MEAN_MOTION_DOT":"0.00012518"},{"TIME_SYSTEM":"UTC","REF_FRAME":"TEME","APOAPSIS":"548.420","EPHEMERIS_TYPE":"0","EPOCH":"2022-03-18T06:11:54.889152","ECCENTRICITY":"0.00017190","LAUNCH_DATE":"2021-05-04","MEAN_MOTION_DOT":"0.00006193","CENTER_NAME":"EARTH","TLE_LINE1":"1 48382U 21038AF  22077.25827418  .00006193  00000-0  43433-3 0  9993","MEAN_ANOMALY":"304.1246","MEAN_MOTION_DDOT":"0.0000000000000","DECAY_DATE":null,"RCS_SIZE":"LARGE","ELEMENT_SET_NO":"999","NORAD_CAT_ID":"48382","COUNTRY_CODE":"US","CLASSIFICATION_TYPE":"U","OBJECT_NAME":"STARLINK-2585","RA_OF_ASC_NODE":"31.8421","ARG_OF_PERICENTER":"55.9906","SITE":"AFETR","BSTAR":"0.00043433000000","MEAN_ELEMENT_THEORY":"SGP4","REV_AT_EPOCH":"4825","GP_ID":"199045494","FILE":"3364342","OBJECT_TYPE":"PAYLOAD","SEMIMAJOR_AXIS":"6925.365","PERIOD":"95.592","TLE_LINE2":"2 48382  53.0571  31.8421 0001719  55.9906 304.1246 15.06394798 48250","OBJECT_ID":"2021-038AF","PERIAPSIS":"546.039","INCLINATION":"53.0571","MEAN_MOTION":"15.06394798"},{"MEAN_MOTION_DDOT":"0.0000000000000","MEAN_ANOMALY":"306.4255","TLE_LINE1":"1 48383U 21038AG  22077.38729017  .00015298  00000-0  10431-2 0  9991","DECAY_DATE":null,"APOAPSIS":"548.338","REF_FRAME":"TEME","TIME_SYSTEM":"UTC","LAUNCH_DATE":"2021-05-04","EPHEMERIS_TYPE":"0","ECCENTRICITY":"0.00017170","EPOCH":"2022-03-18T09:17:41.870688","MEAN_MOTION_DOT":"0.00015298","CENTER_NAME":"EARTH","GP_ID":"199078071","FILE":"3364595","OBJECT_TYPE":"PAYLOAD","MEAN_ELEMENT_THEORY":"SGP4","REV_AT_EPOCH":"4885","SEMIMAJOR_AXIS":"6925.284","PERIOD":"95.591","MEAN_MOTION":"15.06421201","TLE_LINE2":"2 48383  53.0564  31.2504 0001717  53.6893 306.4255 15.06421201 48858","INCLINATION":"53.0564","PERIAPSIS":"545.960","OBJECT_ID":"2021-038AG","RCS_SIZE":"LARGE","ELEMENT_SET_NO":"999","NORAD_CAT_ID":"48383","CLASSIFICATION_TYPE":"U","OBJECT_NAME":"STARLINK-2599","RA_OF_ASC_NODE":"31.2504","ARG_OF_PERICENTER":"53.6893","COUNTRY_CODE":"US","BSTAR":"0.00104310000000","SITE":"AFETR"},{"RCS_SIZE":"LARGE","NORAD_CAT_ID":"48384","ELEMENT_SET_NO":"999","ARG_OF_PERICENTER":"41.9563","CLASSIFICATION_TYPE":"U","RA_OF_ASC_NODE":"31.8658","OBJECT_NAME":"STARLINK-2601","COUNTRY_CODE":"US","BSTAR":"0.00097651000000","SITE":"AFETR","OBJECT_TYPE":"PAYLOAD","FILE":"3364342","GP_ID":"199044504","REV_AT_EPOCH":"4947","MEAN_ELEMENT_THEORY":"SGP4","SEMIMAJOR_AXIS":"6925.324","PERIOD":"95.592","MEAN_MOTION":"15.06408159","OBJECT_ID":"2021-038AH","PERIAPSIS":"545.974","INCLINATION":"53.0557","TLE_LINE2":"2 48384  53.0557  31.8658 0001754  41.9563 318.1560 15.06408159 49477","REF_FRAME":"TEME","APOAPSIS":"548.403","TIME_SYSTEM":"UTC","LAUNCH_DATE":"2021-05-04","ECCENTRICITY":"0.00017540","EPOCH":"2022-03-18T06:01:18.840864","EPHEMERIS_TYPE":"0","MEAN_MOTION_DOT":"0.00014297","CENTER_NAME":"EARTH","MEAN_MOTION_DDOT":"0.0000000000000","TLE_LINE1":"1 48384U 21038AH  22077.25091251  .00014297  00000-0  97651-3 0  9998","MEAN_ANOMALY":"318.1560","DECAY_DATE":null},{"MEAN_MOTION_DDOT":"0.0000000000000","MEAN_ANOMALY":"310.5760","TLE_LINE1":"1 48385U 21038AJ  22077.24722354  .00019288  00000-0  13095-2 0  9997","DECAY_DATE":null,"REF_FRAME":"TEME","APOAPSIS":"548.143","TIME_SYSTEM":"UTC","LAUNCH_DATE":"2021-05-04","EPOCH":"2022-03-18T05:56:00.113856","ECCENTRICITY":"0.00014340","EPHEMERIS_TYPE":"0","MEAN_MOTION_DOT":"0.00019288","CENTER_NAME":"EARTH","OBJECT_TYPE":"PAYLOAD","GP_ID":"199045255","FILE":"3364342","MEAN_ELEMENT_THEORY":"SGP4","REV_AT_EPOCH":"4947","SEMIMAJOR_AXIS":"6925.284","PERIOD":"95.591","MEAN_MOTION":"15.06420909","PERIAPSIS":"546.156","INCLINATION":"53.0555","OBJECT_ID":"2021-038AJ","TLE_LINE2":"2 48385  53.0555  31.8777 0001434  49.5354 310.5760 15.06420909 49470","RCS_SIZE":"LARGE","NORAD_CAT_ID":"48385","ELEMENT_SET_NO":"999","ARG_OF_PERICENTER":"49.5354","OBJECT_NAME":"STARLINK-2598","CLASSIFICATION_TYPE":"U","RA_OF_ASC_NODE":"31.8777","COUNTRY_CODE":"US","BSTAR":"0.00130950000000","SITE":"AFETR"},{"LAUNCH_DATE":"2021-05-04","ECCENTRICITY":"0.00015750","EPOCH":"2022-03-18T19:56:34.511136","EPHEMERIS_TYPE":"0","APOAPSIS":"548.244","REF_FRAME":"TEME","TIME_SYSTEM":"UTC","CENTER_NAME":"EARTH","MEAN_MOTION_DOT":"0.00010435","MEAN_MOTION_DDOT":"0.0000000000000","TLE_LINE1":"1 48386U 21038AK  22077.83095499  .00010435  00000-0  71801-3 0  9991","MEAN_ANOMALY":"310.1163","DECAY_DATE":null,"ELEMENT_SET_NO":"999","NORAD_CAT_ID":"48386","RCS_SIZE":"LARGE","BSTAR":"0.00071801000000","SITE":"AFETR","ARG_OF_PERICENTER":"49.9965","OBJECT_NAME":"STARLINK-2606","CLASSIFICATION_TYPE":"U","RA_OF_ASC_NODE":"24.2728","COUNTRY_CODE":"US","SEMIMAJOR_AXIS":"6925.288","OBJECT_TYPE":"PAYLOAD","FILE":"3364757","GP_ID":"199104242","MEAN_ELEMENT_THEORY":"SGP4","REV_AT_EPOCH":"4840","MEAN_MOTION":"15.06419638","PERIAPSIS":"546.063","INCLINATION":"53.0549","OBJECT_ID":"2021-038AK","TLE_LINE2":"2 48386  53.0549  24.2728 0001575  49.9965 310.1163 15.06419638 48406","PERIOD":"95.591"}];
